ONEWEB-0300             
1 49089U 21075Q   25153.21416582  .00000491  00000+0  13294-2 0  9994
2 49089  87.8885  66.2338 0001603  74.6142 285.5164 13.12444159186356
ONEWEB-0301             
1 49090U 21075R   25153.19794501  .00000428  00000+0  11550-2 0  9996
2 49090  87.8884  66.2427 0001496  74.7146 285.4148 13.12443713185716
ONEWEB-0302             
1 49091U 21075S   25153.48991369 -.00000126  00000+0 -38567-3 0  9995
2 49091  87.8887  66.1857 0002319  83.3340 276.8052 13.12444524185745
ONEWEB-0304             
1 49092U 21075T   25153.18374799  .00000108  00000+0  24618-3 0  9995
2 49092  87.9067  81.5247 0002152  76.8986 283.2385 13.17651817184514
ONEWEB-0305             
1 49093U 21075U   25153.86042462  .00000028  00000+0  39188-4 0  9990
2 49093  87.9064  81.3675 0002282  69.7416 290.3961 13.17648652184622
ONEWEB-0308             
1 49094U 21075V   25153.17846326 -.00000443  00000+0 -12678-2 0  9992
2 49094  87.8885  66.2425 0001915  79.3032 280.8312 13.12444112185738
ONEWEB-0309             
1 49095U 21075W   25154.16756374 -.00000009  00000+0 -56828-4 0  9991
2 49095  87.9069  81.3221 0002429  87.0359 273.1050 13.17648480184658
ONEWEB-0310             
1 49096U 21075X   25154.18414320 -.00000291  00000+0 -84422-3 0  9999
2 49096  87.8891  66.0827 0002012  85.5586 274.5772 13.12444583186477
